[{"OBJECT_NAME":"RESURS-P 4","OBJECT_ID":"2024-061A","EPOCH":"2026-03-10T00:09:50.865408","MEAN_MOTION":15.32930455,"ECCENTRICITY":0.00024315,"INCLINATION":97.2654,"RA_OF_ASC_NODE":18.6595,"ARG_OF_PERICENTER":59.481,"MEAN_ANOMALY":300.6672,"EPHEMERIS_TYPE":0,"CLASSIFICATION_TYPE":"U","NORAD_CAT_ID":59371,"ELEMENT_SET_NO":999,"REV_AT_EPOCH":10857,"BSTAR":0.00016169192,"MEAN_MOTION_DOT":5.066e-5,"MEAN_MOTION_DDOT":0},{"OBJECT_NAME":"STARLINK-35737","OBJECT_ID":"2025-244P","EPOCH":"2026-03-09T16:53:28.367520","MEAN_MOTION":15.3017748,"ECCENTRICITY":0.00010124,"INCLINATION":53.1593,"RA_OF_ASC_NODE":229.7067,"ARG_OF_PERICENTER":58.869,"MEAN_ANOMALY":301.241,"EPHEMERIS_TYPE":0,"CLASSIFICATION_TYPE":"U","NORAD_CAT_ID":66219,"ELEMENT_SET_NO":999,"REV_AT_EPOCH":2166,"BSTAR":0.00098589878,"MEAN_MOTION_DOT":0.00028934,"MEAN_MOTION_DDOT":0}]
